start=new Date('2022-09-03T00:00:00.000Z').valueOf();
sats=[{"COUNTRY_CODE":"US","MEAN_ANOMALY":"106.5403","DECAY_DATE":null,"RA_OF_ASC_NODE":"272.2020","REV_AT_EPOCH":"130","PERIAPSIS":"538.696","OBJECT_TYPE":"PAYLOAD","GP_ID":"211591833","MEAN_MOTION":"15.08834803","REF_FRAME":"TEME","TLE_LINE1":"1 52616U 22052U   22245.91668981  .00036815  00000-0  23195-2 0  9999","CENTER_NAME":"EARTH","FILE":"3555599","EPHEMERIS_TYPE":"0","SITE":"AFETR","CLASSIFICATION_TYPE":"U","ECCENTRICITY":"0.00015400","TLE_LINE2":"2 52616  53.2153 272.2020 0001540  53.1019 106.5403 15.08834803  1308","MEAN_MOTION_DOT":"0.00036815","MEAN_ELEMENT_THEORY":"SGP4","EPOCH":"2022-09-02T22:00:01.999584","NORAD_CAT_ID":"52616","ELEMENT_SET_NO":"999","LAUNCH_DATE":"2022-05-14","MEAN_MOTION_DDOT":"0.0000000000000","BSTAR":"0.00231950000000","SEMIMAJOR_AXIS":"6917.896","ARG_OF_PERICENTER":"53.1019","APOAPSIS":"540.827","TIME_SYSTEM":"UTC","PERIOD":"95.438","RCS_SIZE":"LARGE","INCLINATION":"53.2153","OBJECT_ID":"2022-052U","OBJECT_NAME":"STARLINK-4015"},{"INCLINATION":"53.2134","OBJECT_ID":"2022-052V","OBJECT_NAME":"STARLINK-3996","ARG_OF_PERICENTER":"60.4926","PERIOD":"95.543","TIME_SYSTEM":"UTC","APOAPSIS":"545.739","RCS_SIZE":"LARGE","BSTAR":"0.00274240000000","SEMIMAJOR_AXIS":"6922.969","ELEMENT_SET_NO":"999","LAUNCH_DATE":"2022-05-14","MEAN_MOTION_DDOT":"0.0000000000000","ECCENTRICITY":"0.00013060","CLASSIFICATION_TYPE":"U","TLE_LINE2":"2 52617  53.2134 271.8173 0001306  60.4926 335.0650 15.07176617  1304","MEAN_MOTION_DOT":"0.00041676","MEAN_ELEMENT_THEORY":"SGP4","EPOCH":"2022-09-02T22:00:01.999584","NORAD_CAT_ID":"52617","EPHEMERIS_TYPE":"0","FILE":"3555599","SITE":"AFETR","MEAN_MOTION":"15.07176617","TLE_LINE1":"1 52617U 22052V   22245.91668981  .00041676  00000-0  27424-2 0  9990","REF_FRAME":"TEME","CENTER_NAME":"EARTH","COUNTRY_CODE":"US","RA_OF_ASC_NODE":"271.8173","DECAY_DATE":null,"MEAN_ANOMALY":"335.0650","OBJECT_TYPE":"PAYLOAD","GP_ID":"211592671","PERIAPSIS":"543.930","REV_AT_EPOCH":"130"},{"MEAN_MOTION_DOT":"0.00037008","EPOCH":"2022-09-02T22:00:01.999584","MEAN_ELEMENT_THEORY":"SGP4","NORAD_CAT_ID":"52618","CLASSIFICATION_TYPE":"U","ECCENTRICITY":"0.00013390","TLE_LINE2":"2 52618  53.2162 272.2057 0001339  63.4168 116.3065 15.08807172  1307","FILE":"3555599","EPHEMERIS_TYPE":"0","SITE":"AFETR","TLE_LINE1":"1 52618U 22052W   22245.91668981  .00037008  00000-0  23333-2 0  9990","REF_FRAME":"TEME","CENTER_NAME":"EARTH","MEAN_MOTION":"15.08807172","REV_AT_EPOCH":"130","PERIAPSIS":"538.919","OBJECT_TYPE":"PAYLOAD","GP_ID":"211592391","COUNTRY_CODE":"US","MEAN_ANOMALY":"116.3065","RA_OF_ASC_NODE":"272.2057","DECAY_DATE":null,"OBJECT_ID":"2022-052W","OBJECT_NAME":"STARLINK-3983","INCLINATION":"53.2162","TIME_SYSTEM":"UTC","APOAPSIS":"540.772","PERIOD":"95.440","RCS_SIZE":"LARGE","ARG_OF_PERICENTER":"63.4168","BSTAR":"0.00233330000000","SEMIMAJOR_AXIS":"6917.981","MEAN_MOTION_DDOT":"0.0000000000000","ELEMENT_SET_NO":"999","LAUNCH_DATE":"2022-05-14"},{"ECCENTRICITY":"0.00017080","CLASSIFICATION_TYPE":"U","TLE_LINE2":"2 52619  53.2158 272.2040 0001708  55.7484 158.7441 15.08813496  1304","MEAN_MOTION_DOT":"0.00037700","NORAD_CAT_ID":"52619","MEAN_ELEMENT_THEORY":"SGP4","EPOCH":"2022-09-02T22:00:01.999584","EPHEMERIS_TYPE":"0","FILE":"3555599","SITE":"AFETR","MEAN_MOTION":"15.08813496","REF_FRAME":"TEME","TLE_LINE1":"1 52619U 22052X   22245.91668981  .00037700  00000-0  23759-2 0  9992","CENTER_NAME":"EARTH","COUNTRY_CODE":"US","DECAY_DATE":null,"RA_OF_ASC_NODE":"272.2040","MEAN_ANOMALY":"158.7441","OBJECT_TYPE":"PAYLOAD","GP_ID":"211592111","REV_AT_EPOCH":"130","PERIAPSIS":"538.645","INCLINATION":"53.2158","OBJECT_ID":"2022-052X","OBJECT_NAME":"STARLINK-3741","ARG_OF_PERICENTER":"55.7484","PERIOD":"95.439","APOAPSIS":"541.008","TIME_SYSTEM":"UTC","RCS_SIZE":"LARGE","BSTAR":"0.00237590000000","SEMIMAJOR_AXIS":"6917.961","LAUNCH_DATE":"2022-05-14","ELEMENT_SET_NO":"999","MEAN_MOTION_DDOT":"0.0000000000000"},{"ARG_OF_PERICENTER":"52.9036","PERIOD":"95.439","APOAPSIS":"540.823","TIME_SYSTEM":"UTC","RCS_SIZE":"LARGE","INCLINATION":"53.2161","OBJECT_NAME":"STARLINK-3975","OBJECT_ID":"2022-052Y","LAUNCH_DATE":"2022-05-14","ELEMENT_SET_NO":"999","MEAN_MOTION_DDOT":"0.0000000000000","BSTAR":"0.00102660000000","SEMIMAJOR_AXIS":"6917.951","EPHEMERIS_TYPE":"0","FILE":"3555599","SITE":"AFETR","ECCENTRICITY":"0.00014560","CLASSIFICATION_TYPE":"U","TLE_LINE2":"2 52620  53.2161 287.1984 0001456  52.9036 184.3037 15.08816923  1308","MEAN_MOTION_DOT":"0.00016078","MEAN_ELEMENT_THEORY":"SGP4","EPOCH":"2022-09-02T22:00:01.999584","NORAD_CAT_ID":"52620","COUNTRY_CODE":"US","DECAY_DATE":null,"RA_OF_ASC_NODE":"287.1984","MEAN_ANOMALY":"184.3037","GP_ID":"211592246","OBJECT_TYPE":"PAYLOAD","REV_AT_EPOCH":"130","PERIAPSIS":"538.809","MEAN_MOTION":"15.08816923","REF_FRAME":"TEME","TLE_LINE1":"1 52620U 22052Y   22245.91668981  .00016078  00000-0  10266-2 0  9998","CENTER_NAME":"EARTH"},{"SITE":"AFETR","FILE":"3555599","EPHEMERIS_TYPE":"0","TLE_LINE2":"2 52621  53.2156 272.2075 0001382  40.9622 218.5757 15.08771415  1300","CLASSIFICATION_TYPE":"U","ECCENTRICITY":"0.00013820","MEAN_ELEMENT_THEORY":"SGP4","EPOCH":"2022-09-02T22:00:01.999584","NORAD_CAT_ID":"52621","MEAN_MOTION_DOT":"0.00121573","MEAN_ANOMALY":"218.5757","RA_OF_ASC_NODE":"272.2075","DECAY_DATE":null,"COUNTRY_CODE":"US","REV_AT_EPOCH":"130","PERIAPSIS":"538.999","OBJECT_TYPE":"PAYLOAD","GP_ID":"211592849","MEAN_MOTION":"15.08771415","CENTER_NAME":"EARTH","REF_FRAME":"TEME","TLE_LINE1":"1 52621U 22052Z   22245.91668981  .00121573  00000-0  75408-2 0  9995","ARG_OF_PERICENTER":"40.9622","RCS_SIZE":"LARGE","APOAPSIS":"540.911","TIME_SYSTEM":"UTC","PERIOD":"95.442","INCLINATION":"53.2156","OBJECT_NAME":"STARLINK-3984","OBJECT_ID":"2022-052Z","ELEMENT_SET_NO":"999","LAUNCH_DATE":"2022-05-14","MEAN_MOTION_DDOT":"0.0000000000000","SEMIMAJOR_AXIS":"6918.090","BSTAR":"0.00754080000000"},{"BSTAR":"0.00149380000000","SEMIMAJOR_AXIS":"6917.969","LAUNCH_DATE":"2022-05-14","ELEMENT_SET_NO":"999","MEAN_MOTION_DDOT":"0.0000000000000","INCLINATION":"53.2168","OBJECT_NAME":"STARLINK-4008","OBJECT_ID":"2022-052AA","ARG_OF_PERICENTER":"77.3922","PERIOD":"95.439","APOAPSIS":"540.633","TIME_SYSTEM":"UTC","RCS_SIZE":"LARGE","MEAN_MOTION":"15.08811072","TLE_LINE1":"1 52622U 22052AA  22245.91668981  .00023547  00000-0  14938-2 0  9999","REF_FRAME":"TEME","CENTER_NAME":"EARTH","COUNTRY_CODE":"US","DECAY_DATE":null,"RA_OF_ASC_NODE":"287.1946","MEAN_ANOMALY":"359.8001","GP_ID":"211591978","OBJECT_TYPE":"PAYLOAD","PERIAPSIS":"539.035","REV_AT_EPOCH":"130","ECCENTRICITY":"0.00011550","CLASSIFICATION_TYPE":"U","TLE_LINE2":"2 52622  53.2168 287.1946 0001155  77.3922 359.8001 15.08811072  1306","MEAN_MOTION_DOT":"0.00023547","MEAN_ELEMENT_THEORY":"SGP4","EPOCH":"2022-09-02T22:00:01.999584","NORAD_CAT_ID":"52622","EPHEMERIS_TYPE":"0","FILE":"3555599","SITE":"AFETR"},{"LAUNCH_DATE":"2022-05-14","ELEMENT_SET_NO":"999","MEAN_MOTION_DDOT":"0.0000000000000","BSTAR":"0.00252140000000","SEMIMAJOR_AXIS":"6917.961","ARG_OF_PERICENTER":"49.6344","APOAPSIS":"541.047","TIME_SYSTEM":"UTC","PERIOD":"95.439","RCS_SIZE":"LARGE","INCLINATION":"53.2155","OBJECT_NAME":"STARLINK-3986","OBJECT_ID":"2022-052AB","COUNTRY_CODE":"US","MEAN_ANOMALY":"229.9384","RA_OF_ASC_NODE":"272.2069","DECAY_DATE":null,"PERIAPSIS":"538.605","REV_AT_EPOCH":"130","GP_ID":"211592525","OBJECT_TYPE":"PAYLOAD","MEAN_MOTION":"15.08813557","REF_FRAME":"TEME","TLE_LINE1":"1 52623U 22052AB  22245.91668981  .00040039  00000-0  25214-2 0  9994","CENTER_NAME":"EARTH","FILE":"3555599","EPHEMERIS_TYPE":"0","SITE":"AFETR","CLASSIFICATION_TYPE":"U","ECCENTRICITY":"0.00017650","TLE_LINE2":"2 52623  53.2155 272.2069 0001765  49.6344 229.9384 15.08813557  1302","MEAN_MOTION_DOT":"0.00040039","MEAN_ELEMENT_THEORY":"SGP4","EPOCH":"2022-09-02T22:00:01.999584","NORAD_CAT_ID":"52623"},{"MEAN_MOTION_DOT":"0.00038353","NORAD_CAT_ID":"52624","EPOCH":"2022-09-02T22:00:01.999584","MEAN_ELEMENT_THEORY":"SGP4","ECCENTRICITY":"0.00014590","CLASSIFICATION_TYPE":"U","TLE_LINE2":"2 52624  53.2160 272.2048 0001459  56.2123 163.4613 15.08812701  1302","EPHEMERIS_TYPE":"0","FILE":"3555599","SITE":"AFETR","REF_FRAME":"TEME","TLE_LINE1":"1 52624U 22052AC  22245.91668981  .00038353  00000-0  24166-2 0  9996","CENTER_NAME":"EARTH","MEAN_MOTION":"15.08812701","GP_ID":"211591834","OBJECT_TYPE":"PAYLOAD","PERIAPSIS":"538.820","REV_AT_EPOCH":"130","COUNTRY_CODE":"US","DECAY_DATE":null,"RA_OF_ASC_NODE":"272.2048","MEAN_ANOMALY":"163.4613","OBJECT_NAME":"STARLINK-4009","OBJECT_ID":"2022-052AC","INCLINATION":"53.2160","PERIOD":"95.439","TIME_SYSTEM":"UTC","APOAPSIS":"540.838","RCS_SIZE":"LARGE","ARG_OF_PERICENTER":"56.2123","BSTAR":"0.00241660000000","SEMIMAJOR_AXIS":"6917.964","MEAN_MOTION_DDOT":"0.0000000000000","LAUNCH_DATE":"2022-05-14","ELEMENT_SET_NO":"999"},{"SEMIMAJOR_AXIS":"6922.951","BSTAR":"0.00268450000000","LAUNCH_DATE":"2022-05-14","ELEMENT_SET_NO":"999","MEAN_MOTION_DDOT":"0.0000000000000","INCLINATION":"53.2157","OBJECT_NAME":"STARLINK-3988","OBJECT_ID":"2022-052AD","ARG_OF_PERICENTER":"77.0569","RCS_SIZE":"LARGE","TIME_SYSTEM":"UTC","APOAPSIS":"545.809","PERIOD":"95.542","MEAN_MOTION":"15.07182673","CENTER_NAME":"EARTH","REF_FRAME":"TEME","TLE_LINE1":"1 52625U 22052AD  22245.91668981  .00040791  00000-0  26845-2 0  9992","MEAN_ANOMALY":"233.1281","DECAY_DATE":null,"RA_OF_ASC_NODE":"272.1649","COUNTRY_CODE":"US","PERIAPSIS":"543.822","REV_AT_EPOCH":"130","OBJECT_TYPE":"PAYLOAD","GP_ID":"211592672","TLE_LINE2":"2 52625  53.2157 272.1649 0001435  77.0569 233.1281 15.07182673  1307","CLASSIFICATION_TYPE":"U","ECCENTRICITY":"0.00014350","MEAN_ELEMENT_THEORY":"SGP4","EPOCH":"2022-09-02T22:00:01.999584","NORAD_CAT_ID":"52625","MEAN_MOTION_DOT":"0.00040791","SITE":"AFETR","FILE":"3555599","EPHEMERIS_TYPE":"0"}];
